[{"OBJECT_NAME":"SHIYAN-21 (SY-21)","OBJECT_ID":"2022-172A","EPOCH":"2026-03-09T23:40:42.191616","MEAN_MOTION":15.28197132,"ECCENTRICITY":0.00206059,"INCLINATION":35.9768,"RA_OF_ASC_NODE":332.6944,"ARG_OF_PERICENTER":79.3933,"MEAN_ANOMALY":280.9121,"EPHEMERIS_TYPE":0,"CLASSIFICATION_TYPE":"U","NORAD_CAT_ID":54752,"ELEMENT_SET_NO":999,"REV_AT_EPOCH":18050,"BSTAR":0.00041186164,"MEAN_MOTION_DOT":0.00011616,"MEAN_MOTION_DDOT":0},{"OBJECT_NAME":"STARLINK-34466","OBJECT_ID":"2025-244W","EPOCH":"2026-03-09T17:07:08.248224","MEAN_MOTION":15.30205375,"ECCENTRICITY":0.00010687,"INCLINATION":53.1596,"RA_OF_ASC_NODE":229.7611,"ARG_OF_PERICENTER":89.8415,"MEAN_ANOMALY":270.2708,"EPHEMERIS_TYPE":0,"CLASSIFICATION_TYPE":"U","NORAD_CAT_ID":66226,"ELEMENT_SET_NO":999,"REV_AT_EPOCH":2166,"BSTAR":0.00055805774,"MEAN_MOTION_DOT":0.00016208,"MEAN_MOTION_DDOT":0}]
